OBJECT_NAME,OBJECT_ID,EPOCH,MEAN_MOTION,ECCENTRICITY,INCLINATION,RA_OF_ASC_NODE,ARG_OF_PERICENTER,MEAN_ANOMALY,EPHEMERIS_TYPE,CLASSIFICATION_TYPE,NORAD_CAT_ID,ELEMENT_SET_NO,REV_AT_EPOCH,BSTAR,MEAN_MOTION_DOT,MEAN_MOTION_DDOT
GAOFEN-11 01,2018-063A,2026-07-18T07:18:52.252416,15.56127515,.00035691,97.1268,266.1119,186.5555,173.5654,0,U,43585,999,44518,.14023758E-3,.9701E-4,0
ICESAT-2,2018-070A,2026-07-18T06:11:20.941728,15.28208105,.00053041,92.0090,299.3759,52.0188,308.1539,0,U,43613,999,43720,.17272407E-3,.4749E-4,0
HYSIS,2018-096A,2026-07-18T06:31:55.519104,14.78672507,.00017559,97.9823,265.7740,83.3352,276.8059,0,U,43719,999,41201,.45971617E-4,.285E-5,0
KAZSTSAT,2018-099AB,2026-07-18T07:38:59.391744,14.99957719,.00072319,97.4314,229.8449,328.0569,32.0216,0,U,43783,999,41597,.16074645E-4,.144E-5,0
SAUDISAT 5A,2018-102A,2026-07-18T07:58:54.956928,15.28339072,.00101414,97.3046,260.3163,33.6639,326.5243,0,U,43831,999,42043,.10290977E-3,.277E-4,0
SAUDISAT 5B,2018-102C,2026-07-18T06:44:28.864896,15.28580921,.00109215,97.3156,263.3917,35.2062,324.9897,0,U,43833,999,42054,.96366979E-4,.2609E-4,0
GAOFEN-10R,2019-066A,2026-07-18T06:10:42.363264,14.83060741,.00067083,98.0510,153.0654,44.7532,315.4221,0,U,44622,999,36698,.72005695E-4,.531E-5,0
CARTOSAT-3,2019-081A,2026-07-18T07:27:34.166304,15.19196136,.00127379,97.4284,260.6739,48.9516,311.2817,0,U,44804,999,36819,.93721047E-4,.1907E-4,0
GAOFEN-12 01,2019-082A,2026-07-18T07:19:18.319296,14.80480872,.00008253,97.8111,204.8646,59.2620,300.8674,0,U,44819,999,35869,.25926463E-4,.148E-5,0
CSG-1,2019-092A,2026-07-18T07:24:35.081568,14.82158213,.00014323,97.8897,22.4620,95.4383,264.6994,0,U,44873,999,35608,.24195265E-4,.14E-5,0
NEMO-HD,2020-061F,2026-07-18T06:50:10.461984,15.45177801,.00010201,97.1896,260.9336,105.9469,254.1893,0,U,46277,999,32678,.13353439E-3,.6245E-4,0
SENTINEL-6A,2020-086A,2026-07-18T00:05:06.974016,12.80930218,.00077743,66.0412,71.0475,269.6912,90.3213,0,U,46984,999,26427,.64038256E-4,-.46E-6,0
CAS500-1,2021-022A,2026-07-18T06:20:04.472160,15.20150368,.00055086,97.3858,93.8819,160.6718,199.4727,0,U,47932,999,29548,.14626012E-3,.3097E-4,0
GAOFEN-12 02,2021-026A,2026-07-18T06:02:43.325376,14.80317223,.0005992,97.9937,197.3078,124.2037,235.9743,0,U,48079,999,28635,.24871857E-4,.137E-5,0
PLEIADES NEO 3,2021-034A,2026-07-18T07:38:02.453280,14.81673466,.00014073,97.8940,273.6371,96.7358,263.4015,0,U,48268,999,28226,.11851144E-3,.881E-5,0
PLEIADES NEO 4,2021-073E,2026-07-18T06:49:24.093696,14.81673563,.00012899,97.8937,273.5995,95.7612,264.3748,0,U,49070,999,26597,.8722425E-5,.17E-6,0
LANDSAT 9,2021-088A,2026-07-18T04:00:00.701856,14.57096763,.0001101,98.2268,268.9668,90.4486,269.6838,0,U,49260,999,25551,.44926632E-4,.157E-5,0
CSG-2,2022-008A,2026-07-18T06:35:56.188896,14.82175655,.0001609,97.8892,22.4220,90.6396,269.5001,0,U,51444,999,24119,.47562673E-4,.327E-5,0
GAOFEN-12 03,2022-069A,2026-07-18T06:53:25.575648,14.80077188,.0002393,97.8235,86.3679,67.9754,292.1712,0,U,52912,999,21921,.4140491E-5,-.19E-6,0
SWOT,2022-173A,2026-07-18T06:50:40.910208,14.00172491,.00002388,77.6113,353.3265,67.2150,292.9027,0,U,54754,999,18350,-.22238683E-4,-.35E-6,0
GAOFEN-12 04,2023-123A,2026-07-18T07:22:41.381760,14.79778405,.00033561,97.9098,116.8593,43.9123,316.2355,0,U,57654,999,15723,.64465948E-4,.433E-5,0
PARS 1,2024-039Q,2026-07-18T06:03:14.069088,15.46329709,.00093875,97.4845,181.1683,16.8399,343.3160,0,U,59065,999,13344,.12797645E-3,.6227E-4,0
RESURS-P 4,2024-061A,2026-07-18T06:49:05.654208,15.32290489,.00032208,97.2760,146.6467,84.9880,275.1730,0,U,59371,999,12852,.53109106E-4,.158E-4,0
LEGION 1,2024-081A,2026-07-18T05:36:24.377472,15.16855003,.00077815,97.5009,276.7614,257.0228,103.0136,0,U,59625,999,12224,.91884203E-4,.1741E-4,0
LEGION 2,2024-081B,2026-07-18T06:20:13.554528,15.16834309,.00104484,97.5010,276.8882,221.7139,138.3299,0,U,59626,999,12225,.95627334E-4,.1815E-4,0
ALOS-4 (DAICHI-4),2024-123A,2026-07-18T06:28:16.667904,14.79474564,.000154,97.9221,295.9994,97.8008,262.3379,0,U,60182,999,11047,.94249054E-4,.653E-5,0
LEGION 3,2024-146A,2026-07-18T04:05:43.864512,15.15664771,.00079253,45.0015,224.4397,350.2066,9.8657,0,U,60452,999,10672,.73354564E-4,.1155E-4,0
LEGION 4,2024-146B,2026-07-18T07:15:05.742720,15.15693110,.00091026,45.0025,315.6024,133.0080,227.1563,0,U,60453,999,10559,.96132074E-4,.1598E-4,0
SENTINEL-2C,2024-157A,2026-07-18T03:38:16.797120,14.30816198,.00010123,98.5683,273.4938,105.1968,254.9327,0,U,60989,999,9741,.33940444E-4,.45E-6,0
IONOSFERA-M 1,2024-199A,2026-07-18T06:40:01.182144,14.22759567,.00021155,98.7130,72.1158,68.5470,291.5934,0,U,61735,999,13212,.26640724E-4,.16E-6,0
