GAOFEN-11 01            
1 43585U 18063A   26199.30477144  .00009701  00000+0  14024-3 0  9990
2 43585  97.1268 266.1119 0003569 186.5555 173.5654 15.56127515445185
ICESAT-2                
1 43613U 18070A   26199.25788127  .00004749  00000+0  17272-3 0  9995
2 43613  92.0090 299.3759 0005304  52.0188 308.1539 15.28208105437206
HYSIS                   
1 43719U 18096A   26199.27217036  .00000285  00000+0  45972-4 0  9998
2 43719  97.9823 265.7740 0001755  83.3352 276.8059 14.78672507412019
KAZSTSAT                
1 43783U 18099AB  26199.31874296  .00000144  00000+0  16075-4 0  9990
2 43783  97.4314 229.8449 0007231 328.0569  32.0216 14.99957719415970
SAUDISAT 5A             
1 43831U 18102A   26199.33258052  .00002770  00000+0  10291-3 0  9997
2 43831  97.3046 260.3163 0010141  33.6639 326.5243 15.28339072420436
SAUDISAT 5B             
1 43833U 18102C   26199.28088964  .00002609  00000+0  96367-4 0  9996
2 43833  97.3156 263.3917 0010921  35.2062 324.9897 15.28580921420544
GAOFEN-10R              
1 44622U 19066A   26199.25743476  .00000531  00000+0  72006-4 0  9992
2 44622  98.0510 153.0654 0006708  44.7532 315.4221 14.83060741366987
CARTOSAT-3              
1 44804U 19081A   26199.31081211  .00001907  00000+0  93721-4 0  9995
2 44804  97.4284 260.6739 0012737  48.9516 311.2817 15.19196136368194
GAOFEN-12 01            
1 44819U 19082A   26199.30507314  .00000148  00000+0  25926-4 0  9996
2 44819  97.8111 204.8646 0000825  59.2620 300.8674 14.80480872358695
CSG-1                   
1 44873U 19092A   26199.30873937  .00000140  00000+0  24195-4 0  9993
2 44873  97.8897  22.4620 0001432  95.4383 264.6994 14.82158213356081
NEMO-HD                 
1 46277U 20061F   26199.28484331  .00006245  00000+0  13353-3 0  9999
2 46277  97.1896 260.9336 0001020 105.9469 254.1893 15.45177801326781
SENTINEL-6A             
1 46984U 20086A   26199.00355294 -.00000046  00000+0  64038-4 0  9997
2 46984  66.0412  71.0475 0007774 269.6912  90.3213 12.80930218264279
CAS500-1                
1 47932U 21022A   26199.26394065  .00003097  00000+0  14626-3 0  9994
2 47932  97.3858  93.8819 0005508 160.6718 199.4727 15.20150368295480
GAOFEN-12 02            
1 48079U 21026A   26199.25189034  .00000137  00000+0  24872-4 0  9995
2 48079  97.9937 197.3078 0005992 124.2037 235.9743 14.80317223286351
PLEIADES NEO 3          
1 48268U 21034A   26199.31808395  .00000881  00000+0  11851-3 0  9997
2 48268  97.8940 273.6371 0001407  96.7358 263.4015 14.81673466282263
PLEIADES NEO 4          
1 49070U 21073E   26199.28430664  .00000017  00000+0  87224-5 0  9998
2 49070  97.8937 273.5995 0001289  95.7612 264.3748 14.81673563265972
LANDSAT 9               
1 49260U 21088A   26199.16667479  .00000157  00000+0  44927-4 0  9995
2 49260  98.2268 268.9668 0001101  90.4486 269.6838 14.57096763255515
CSG-2                   
1 51444U 22008A   26199.27495589  .00000327  00000+0  47563-4 0  9996
2 51444  97.8892  22.4220 0001609  90.6396 269.5001 14.82175655241198
GAOFEN-12 03            
1 52912U 22069A   26199.28710157 -.00000019  00000+0  41405-5 0  9995
2 52912  97.8235  86.3679 0002393  67.9754 292.1712 14.80077188219212
SWOT                    
1 54754U 22173A   26199.28519572 -.00000035  00000+0 -22239-4 0  9997
2 54754  77.6113 353.3265 0000238  67.2150 292.9027 14.00172491183500
GAOFEN-12 04            
1 57654U 23123A   26199.30742340  .00000433  00000+0  64466-4 0  9997
2 57654  97.9098 116.8593 0003356  43.9123 316.2355 14.79778405157238
PARS 1                  
1 59065U 24039Q   26199.25224617  .00006227  00000+0  12798-3 0  9995
2 59065  97.4845 181.1683 0009387  16.8399 343.3160 15.46329709133446
RESURS-P 4              
1 59371U 24061A   26199.28409322  .00001580  00000+0  53109-4 0  9990
2 59371  97.2760 146.6467 0003220  84.9880 275.1730 15.32290489128522
LEGION 1                
1 59625U 24081A   26199.23361548  .00001741  00000+0  91884-4 0  9997
2 59625  97.5009 276.7614 0007781 257.0228 103.0136 15.16855003122240
LEGION 2                
1 59626U 24081B   26199.26404577  .00001815  00000+0  95627-4 0  9992
2 59626  97.5010 276.8882 0010448 221.7139 138.3299 15.16834309122252
ALOS-4 (DAICHI-4)       
1 60182U 24123A   26199.26963736  .00000653  00000+0  94249-4 0  9993
2 60182  97.9221 295.9994 0001540  97.8008 262.3379 14.79474564110474
LEGION 3                
1 60452U 24146A   26199.17064658  .00001155  00000+0  73355-4 0  9996
2 60452  45.0015 224.4397 0007925 350.2066   9.8657 15.15664771106724
LEGION 4                
1 60453U 24146B   26199.30214980  .00001598  00000+0  96132-4 0  9996
2 60453  45.0025 315.6024 0009102 133.0080 227.1563 15.15693110105592
SENTINEL-2C             
1 60989U 24157A   26199.15158330  .00000045  00000+0  33940-4 0  9995
2 60989  98.5683 273.4938 0001012 105.1968 254.9327 14.30816198 97417
IONOSFERA-M 1           
1 61735U 24199A   26199.27779146  .00000016  00000+0  26641-4 0  9996
2 61735  98.7130  72.1158 0002115  68.5470 291.5934 14.22759567132125
